[{"OBJECT_NAME":"STARLINK-3891","OBJECT_ID":"2022-052BE","EPOCH":"2026-03-09T17:29:02.465664","MEAN_MOTION":15.08833431,"ECCENTRICITY":0.00011267,"INCLINATION":53.2163,"RA_OF_ASC_NODE":249.0525,"ARG_OF_PERICENTER":106.3783,"MEAN_ANOMALY":253.7333,"EPHEMERIS_TYPE":0,"CLASSIFICATION_TYPE":"U","NORAD_CAT_ID":52650,"ELEMENT_SET_NO":999,"REV_AT_EPOCH":21128,"BSTAR":-7.7027545e-5,"MEAN_MOTION_DOT":-1.513e-5,"MEAN_MOTION_DDOT":0},{"OBJECT_NAME":"OBJECT A","OBJECT_ID":"2025-292A","EPOCH":"2026-03-09T21:45:44.016480","MEAN_MOTION":15.05451809,"ECCENTRICITY":0.00146319,"INCLINATION":97.6364,"RA_OF_ASC_NODE":145.598,"ARG_OF_PERICENTER":341.1551,"MEAN_ANOMALY":18.9132,"EPHEMERIS_TYPE":0,"CLASSIFICATION_TYPE":"U","NORAD_CAT_ID":66993,"ELEMENT_SET_NO":999,"REV_AT_EPOCH":1350,"BSTAR":0.00038878249,"MEAN_MOTION_DOT":5.535e-5,"MEAN_MOTION_DDOT":0}]
